LEMUR-2-ANDIS           
1 42838U 17042P   26068.55941107  .00023598  00000+0  79875-3 0  9998
2 42838  97.3659 249.7950 0009101   4.3248 355.8070 15.30557934473198
STARLINK-35602          
1 66403U 25257Z   26068.69165558  .00038030  00000+0  12900-2 0  9994
2 66403  53.1580 217.0219 0000948  66.8442 293.2658 15.30189236 19739
